METHANESAT              
1 59101U 24043D   26045.27103717  .00003269  00000+0  28606-3 0  9998
2 59101  97.8242 175.9098 0011262  63.0492 297.1879 14.97390757106254
GOSAT-GW (IBUKI GW)     
1 64694U 25141A   26045.25912631  .00000942  00000+0  17438-3 0  9998
2 64694  98.0483 344.6402 0001459  83.1897 276.9474 14.67556135 33818
GHGSAT-C1               
1 46278U 20061G   26045.24377558  .00031238  00000+0  34665-3 0  9997
2 46278  97.2212 127.0783 0002491 121.3401 238.8102 15.62883555304221
GHGSAT-C12              
1 64529U 25135B   26045.26250425  .00004867  00000+0  23362-3 0  9998
2 64529  97.4607 161.3506 0003976 231.3389 128.7490 15.19324367 36154
GHGSAT-C13              
1 64548U 25135W   26045.25740566  .00004187  00000+0  19740-3 0  9998
2 64548  97.4634 161.7360 0001911 133.7372 226.4021 15.20038307 36177
GHGSAT-C2               
1 47509U 21006DA  26045.10422163  .00006642  00000+0  19081-3 0  9999
2 47509  97.2348  94.4837 0003737 241.3015 118.7854 15.36150348280944
GHGSAT-C3               
1 52737U 22057F   26045.30410624  .00008545  00000+0  27474-3 0  9995
2 52737  97.6382 186.6626 0006101 188.1587 171.9557 15.32499702206704
GHGSAT-C4               
1 52746U 22057Q   26045.32357601  .00008639  00000+0  27781-3 0  9997
2 52746  97.6309 185.6388 0006618 173.9503 186.1819 15.32489097206716
GHGSAT-C5               
1 52744U 22057N   26045.27598472  .00008807  00000+0  28323-3 0  9992
2 52744  97.6473 188.0639 0007149 185.8745 174.2414 15.32476798206704
GHGSAT-C6               
1 56204U 23054AC  26045.29271806  .00015860  00000+0  29345-3 0  9998
2 56204  97.3149 313.2816 0009883 120.8062 239.4163 15.49062283159400
GHGSAT-C7               
1 56209U 23054AH  26045.22449316  .00012035  00000+0  23972-3 0  9990
2 56209  97.3107 312.2293 0009984 116.3461 243.8816 15.46996715159364
GHGSAT-C8               
1 56186U 23054J   26045.26447907  .00015387  00000+0  28472-3 0  9995
2 56186  97.3110 312.6524 0007213 132.5937 227.5924 15.49092618159387
SENTINEL-5P             
1 42969U 17064A   26045.27417285  .00000073  00000+0  55768-4 0  9995
2 42969  98.7852 348.3190 0001197  81.2992 278.8320 14.19543177432122
ENMAP                   
1 52159U 22033C   26045.24106726  .00000032  00000+0  12149-4 0  9992
2 52159  97.9774 129.2413 0001245  73.5467 286.5879 14.74936710208538
PRISMA                  
1 44072U 19015A   26045.26193990  .00000502  00000+0  67212-4 0  9997
2 44072  97.8764 121.8103 0001129  81.6188 278.5154 14.83648641373821
SENTINEL-2A             
1 40697U 15028A   26045.27070660 -.00000094  00000+0 -19241-4 0  9992
2 40697  98.5705 121.9146 0001095  98.2234 261.9073 14.30810058556159
SENTINEL-2B             
1 42063U 17013A   26045.27038598 -.00000020  00000+0  91952-5 0  9999
2 42063  98.5705 121.7992 0001105  90.0397 270.0913 14.30810223467066
SENTINEL-2C             
1 60989U 24157A   26045.16557558  .00000132  00000+0  67093-4 0  9994
2 60989  98.5663 121.7199 0000972  83.5569 276.5724 14.30816126 75394
LANDSAT 8               
1 39084U 13008A   26045.24418429  .00000473  00000+0  11493-3 0  9991
2 39084  98.1967 117.3484 0001333  90.3721 269.7631 14.57108506679997
LANDSAT 9               
1 49260U 21088A   26045.14130839  .00000419  00000+0  10291-3 0  9995
2 49260  98.1988 117.3013 0001294  93.1356 266.9991 14.57122424233085
